{
  "type": "FeatureCollection",
  "features": [
    {
      "type": "Feature",
      "properties": {
        "norad_id": 36828,
        "name": "BEIDOU-2 IGSO-1 (C06)",
        "group": "beidou",
        "lat": -4.687465533660017,
        "lon": 161.21260694071876,
        "alt_km": 35947.15935274129,
        "timestamp": "2025-12-16T21:38:57.439389+00:00",
        "meta_object_name": "BEIDOU-2 IGSO-1 (C06)",
        "meta_object_id": "2010-036A",
        "meta_epoch": "2025-12-14T21:38:21.623424",
        "meta_mean_motion": 1.00275796,
        "meta_eccentricity": 0.00512569,
        "meta_inclination": 54.2866,
        "meta_ra_of_asc_node": 164.6279,
        "meta_arg_of_pericenter": 215.8888,
        "meta_mean_anomaly": 135.7931,
        "meta_ephemeris_type": 0,
        "meta_classification_type": "U",
        "meta_norad_cat_id": 36828,
        "meta_element_set_no": 999,
        "meta_rev_at_epoch": 5624,
        "meta_bstar": 0,
        "meta_mean_motion_dot": -2.4e-07,
        "meta_mean_motion_ddot": 0,
        "tle_line1": "1 36828U 10036A   25348.90163916 -.00000024  00000+0  00000+0 0  9999",
        "tle_line2": "2 36828  54.2866 164.6279 0051256 215.8888 135.7931  1.00275796 56247"
      },
      "geometry": {
        "type": "Point",
        "coordinates": [
          161.21260694071876,
          -4.687465533660017
        ]
      }
    },
    {
      "type": "Feature",
      "properties": {
        "norad_id": 37210,
        "name": "BEIDOU-2 G4 (C04)",
        "group": "beidou",
        "lat": 2.0109091328975044,
        "lon": -149.4548876215936,
        "alt_km": 35757.84426602366,
        "timestamp": "2025-12-16T21:38:57.439412+00:00",
        "meta_object_name": "BEIDOU-2 G4 (C04)",
        "meta_object_id": "2010-057A",
        "meta_epoch": "2025-12-16T07:16:12.833184",
        "meta_mean_motion": 1.00271918,
        "meta_eccentricity": 0.00105707,
        "meta_inclination": 3.1934,
        "meta_ra_of_asc_node": 69.9263,
        "meta_arg_of_pericenter": 192.0212,
        "meta_mean_anomaly": 92.3789,
        "meta_ephemeris_type": 0,
        "meta_classification_type": "U",
        "meta_norad_cat_id": 37210,
        "meta_element_set_no": 999,
        "meta_rev_at_epoch": 5545,
        "meta_bstar": 0,
        "meta_mean_motion_dot": -9e-07,
        "meta_mean_motion_ddot": 0,
        "tle_line1": "1 37210U 10057A   25350.30292631 -.00000090  00000+0  00000+0 0  9995",
        "tle_line2": "2 37210   3.1934  69.9263 0010570 192.0212  92.3789  1.00271918 55456"
      },
      "geometry": {
        "type": "Point",
        "coordinates": [
          -149.4548876215936,
          2.0109091328975044
        ]
      }
    },
    {
      "type": "Feature",
      "properties": {
        "norad_id": 37256,
        "name": "BEIDOU-2 IGSO-2 (C07)",
        "group": "beidou",
        "lat": -42.0550627428579,
        "lon": 148.61099093005035,
        "alt_km": 35606.8685098751,
        "timestamp": "2025-12-16T21:38:57.439427+00:00",
        "meta_object_name": "BEIDOU-2 IGSO-2 (C07)",
        "meta_object_id": "2010-068A",
        "meta_epoch": "2025-12-15T17:44:21.809184",
        "meta_mean_motion": 1.00285693,
        "meta_eccentricity": 0.00486119,
        "meta_inclination": 47.8802,
        "meta_ra_of_asc_node": 274.1114,
        "meta_arg_of_pericenter": 216.5623,
        "meta_mean_anomaly": 327.802,
        "meta_ephemeris_type": 0,
        "meta_classification_type": "U",
        "meta_norad_cat_id": 37256,
        "meta_element_set_no": 999,
        "meta_rev_at_epoch": 5495,
        "meta_bstar": 0,
        "meta_mean_motion_dot": -2.2e-06,
        "meta_mean_motion_ddot": 0,
        "tle_line1": "1 37256U 10068A   25349.73914131 -.00000220  00000+0  00000+0 0  9993",
        "tle_line2": "2 37256  47.8802 274.1114 0048611 216.5623 327.8020  1.00285693 54958"
      },
      "geometry": {
        "type": "Point",
        "coordinates": [
          148.61099093005035,
          -42.0550627428579
        ]
      }
    },
    {
      "type": "Feature",
      "properties": {
        "norad_id": 37384,
        "name": "BEIDOU-2 IGSO-3 (C08)",
        "group": "beidou",
        "lat": 52.852356987880036,
        "lon": 177.736228211093,
        "alt_km": 35735.08247708467,
        "timestamp": "2025-12-16T21:38:57.439441+00:00",
        "meta_object_name": "BEIDOU-2 IGSO-3 (C08)",
        "meta_object_id": "2011-013A",
        "meta_epoch": "2025-12-15T15:08:39.193152",
        "meta_mean_motion": 1.00270237,
        "meta_eccentricity": 0.00354064,
        "meta_inclination": 62.1477,
        "meta_ra_of_asc_node": 41.8879,
        "meta_arg_of_pericenter": 187.6383,
        "meta_mean_anomaly": 189.6615,
        "meta_ephemeris_type": 0,
        "meta_classification_type": "U",
        "meta_norad_cat_id": 37384,
        "meta_element_set_no": 999,
        "meta_rev_at_epoch": 5382,
        "meta_bstar": 0,
        "meta_mean_motion_dot": -1.9e-06,
        "meta_mean_motion_ddot": 0,
        "tle_line1": "1 37384U 11013A   25349.63100918 -.00000190  00000+0  00000+0 0  9991",
        "tle_line2": "2 37384  62.1477  41.8879 0035406 187.6383 189.6615  1.00270237 53821"
      },
      "geometry": {
        "type": "Point",
        "coordinates": [
          177.736228211093,
          52.852356987880036
        ]
      }
    },
    {
      "type": "Feature",
      "properties": {
        "norad_id": 37763,
        "name": "BEIDOU-2 IGSO-4 (C09)",
        "group": "beidou",
        "lat": -16.692626345805618,
        "lon": 154.96053420615112,
        "alt_km": 35983.40422841822,
        "timestamp": "2025-12-16T21:38:57.439453+00:00",
        "meta_object_name": "BEIDOU-2 IGSO-4 (C09)",
        "meta_object_id": "2011-038A",
        "meta_epoch": "2025-12-15T07:50:06.120672",
        "meta_mean_motion": 1.00281785,
        "meta_eccentricity": 0.01493054,
        "meta_inclination": 54.5835,
        "meta_ra_of_asc_node": 167.3229,
        "meta_arg_of_pericenter": 230.222,
        "meta_mean_anomaly": 258.6911,
        "meta_ephemeris_type": 0,
        "meta_classification_type": "U",
        "meta_norad_cat_id": 37763,
        "meta_element_set_no": 999,
        "meta_rev_at_epoch": 5280,
        "meta_bstar": 0,
        "meta_mean_motion_dot": 6.8e-07,
        "meta_mean_motion_ddot": 0,
        "tle_line1": "1 37763U 11038A   25349.32645973  .00000068  00000+0  00000+0 0  9993",
        "tle_line2": "2 37763  54.5835 167.3229 0149305 230.2220 258.6911  1.00281785 52800"
      },
      "geometry": {
        "type": "Point",
        "coordinates": [
          154.96053420615112,
          -16.692626345805618
        ]
      }
    },
    {
      "type": "Feature",
      "properties": {
        "norad_id": 37948,
        "name": "BEIDOU-2 IGSO-5 (C10)",
        "group": "beidou",
        "lat": -34.80619500868548,
        "lon": 132.4400013912574,
        "alt_km": 35326.372704076086,
        "timestamp": "2025-12-16T21:38:57.439465+00:00",
        "meta_object_name": "BEIDOU-2 IGSO-5 (C10)",
        "meta_object_id": "2011-073A",
        "meta_epoch": "2025-12-12T18:24:47.608416",
        "meta_mean_motion": 1.00291151,
        "meta_eccentricity": 0.01101752,
        "meta_inclination": 48.0199,
        "meta_ra_of_asc_node": 273.857,
        "meta_arg_of_pericenter": 222.308,
        "meta_mean_anomaly": 314.7254,
        "meta_ephemeris_type": 0,
        "meta_classification_type": "U",
        "meta_norad_cat_id": 37948,
        "meta_element_set_no": 999,
        "meta_rev_at_epoch": 5126,
        "meta_bstar": 0,
        "meta_mean_motion_dot": -2.21e-06,
        "meta_mean_motion_ddot": 0,
        "tle_line1": "1 37948U 11073A   25346.76721769 -.00000221  00000+0  00000+0 0  9992",
        "tle_line2": "2 37948  48.0199 273.8570 0110175 222.3080 314.7254  1.00291151 51268"
      },
      "geometry": {
        "type": "Point",
        "coordinates": [
          132.4400013912574,
          -34.80619500868548
        ]
      }
    },
    {
      "type": "Feature",
      "properties": {
        "norad_id": 38091,
        "name": "BEIDOU-2 G5 (C05)",
        "group": "beidou",
        "lat": 1.9688735108169104,
        "lon": 109.32449170120063,
        "alt_km": 35840.68140127769,
        "timestamp": "2025-12-16T21:38:57.439478+00:00",
        "meta_object_name": "BEIDOU-2 G5 (C05)",
        "meta_object_id": "2012-008A",
        "meta_epoch": "2025-12-16T15:20:55.893120",
        "meta_mean_motion": 1.00267602,
        "meta_eccentricity": 0.0013027,
        "meta_inclination": 3.1186,
        "meta_ra_of_asc_node": 70.7002,
        "meta_arg_of_pericenter": 231.2097,
        "meta_mean_anomaly": 72.6715,
        "meta_ephemeris_type": 0,
        "meta_classification_type": "U",
        "meta_norad_cat_id": 38091,
        "meta_element_set_no": 999,
        "meta_rev_at_epoch": 5053,
        "meta_bstar": 0,
        "meta_mean_motion_dot": 7.8e-07,
        "meta_mean_motion_ddot": 0,
        "tle_line1": "1 38091U 12008A   25350.63953580  .00000078  00000+0  00000+0 0  9999",
        "tle_line2": "2 38091   3.1186  70.7002 0013027 231.2097  72.6715  1.00267602 50530"
      },
      "geometry": {
        "type": "Point",
        "coordinates": [
          109.32449170120063,
          1.9688735108169104
        ]
      }
    }
  ]
}